[{"OBJECT_NAME":"ONEWEB-0704","OBJECT_ID":"2024-188R","EPOCH":"2025-10-01T23:32:45.539232","MEAN_MOTION":13.10375784,"ECCENTRICITY":0.0002435,"INCLINATION":87.8762,"RA_OF_ASC_NODE":87.696,"ARG_OF_PERICENTER":108.936,"MEAN_ANOMALY":251.2032,"EPHEMERIS_TYPE":0,"CLASSIFICATION_TYPE":"U","NORAD_CAT_ID":61609,"ELEMENT_SET_NO":999,"REV_AT_EPOCH":4947,"BSTAR":-0.0012703,"MEAN_MOTION_DOT":-4.31e-6,"MEAN_MOTION_DDOT":0},{"OBJECT_NAME":"ONEWEB-0705","OBJECT_ID":"2024-188S","EPOCH":"2025-10-01T23:39:57.515904","MEAN_MOTION":13.10353646,"ECCENTRICITY":0.0002877,"INCLINATION":87.8751,"RA_OF_ASC_NODE":87.7263,"ARG_OF_PERICENTER":90.5379,"MEAN_ANOMALY":269.6078,"EPHEMERIS_TYPE":0,"CLASSIFICATION_TYPE":"U","NORAD_CAT_ID":61610,"ELEMENT_SET_NO":999,"REV_AT_EPOCH":4164,"BSTAR":-0.0091038,"MEAN_MOTION_DOT":-3.163e-5,"MEAN_MOTION_DDOT":0},{"OBJECT_NAME":"ONEWEB-0706","OBJECT_ID":"2024-188T","EPOCH":"2025-10-02T01:08:22.475040","MEAN_MOTION":13.1037291,"ECCENTRICITY":0.0002304,"INCLINATION":87.874,"RA_OF_ASC_NODE":87.7402,"ARG_OF_PERICENTER":99.3616,"MEAN_ANOMALY":260.7772,"EPHEMERIS_TYPE":0,"CLASSIFICATION_TYPE":"U","NORAD_CAT_ID":61611,"ELEMENT_SET_NO":999,"REV_AT_EPOCH":4957,"BSTAR":-0.0018885,"MEAN_MOTION_DOT":-6.47e-6,"MEAN_MOTION_DDOT":0},{"OBJECT_NAME":"ONEWEB-0707","OBJECT_ID":"2024-188U","EPOCH":"2025-10-01T23:27:59.505120","MEAN_MOTION":13.10375635,"ECCENTRICITY":0.0002191,"INCLINATION":87.8754,"RA_OF_ASC_NODE":87.7216,"ARG_OF_PERICENTER":101.9694,"MEAN_ANOMALY":258.1679,"EPHEMERIS_TYPE":0,"CLASSIFICATION_TYPE":"U","NORAD_CAT_ID":61612,"ELEMENT_SET_NO":999,"REV_AT_EPOCH":4950,"BSTAR":-0.0013873,"MEAN_MOTION_DOT":-4.72e-6,"MEAN_MOTION_DDOT":0},{"OBJECT_NAME":"ONEWEB-0708","OBJECT_ID":"2024-188V","EPOCH":"2025-10-01T23:54:17.494848","MEAN_MOTION":13.10376839,"ECCENTRICITY":0.0002456,"INCLINATION":87.8754,"RA_OF_ASC_NODE":87.7603,"ARG_OF_PERICENTER":91.9261,"MEAN_ANOMALY":268.2148,"EPHEMERIS_TYPE":0,"CLASSIFICATION_TYPE":"U","NORAD_CAT_ID":61613,"ELEMENT_SET_NO":999,"REV_AT_EPOCH":4948,"BSTAR":0.00096042,"MEAN_MOTION_DOT":3.48e-6,"MEAN_MOTION_DDOT":0}]
