ONEWEB-0704             
1 61609U 24188R   25274.98108263 -.00000431  00000+0 -12703-2 0  9996
2 61609  87.8762  87.6960 0002435 108.9360 251.2032 13.10375784 49477
ONEWEB-0705             
1 61610U 24188S   25274.98608236 -.00003163  00000+0 -91038-2 0  9996
2 61610  87.8751  87.7263 0002877  90.5379 269.6078 13.10353646 41647
ONEWEB-0706             
1 61611U 24188T   25275.04748235 -.00000647  00000+0 -18885-2 0  9992
2 61611  87.8740  87.7402 0002304  99.3616 260.7772 13.10372910 49575
ONEWEB-0707             
1 61612U 24188U   25274.97777205 -.00000472  00000+0 -13873-2 0  9991
2 61612  87.8754  87.7216 0002191 101.9694 258.1679 13.10375635 49501
ONEWEB-0708             
1 61613U 24188V   25274.99603582  .00000348  00000+0  96042-3 0  9990
2 61613  87.8754  87.7603 0002456  91.9261 268.2148 13.10376839 49481
